TITAN 4B R/B            
1 26474U 00047B   25308.48708653  .00004810  00000+0  31092-3 0  9993
2 26474  67.9921  32.2549 0042644 188.7316 171.3096 15.08354067374020
ENVISAT                 
1 27386U 02009A   25308.46286627  .00000158  00000+0  64942-4 0  9998
2 27386  98.3535 260.1864 0001352  84.0589  25.7838 14.38977043241166
IDEFIX & ARIANE 42P R/B 
1 27422U 02021B   25308.40436955  .00000351  00000+0  15009-3 0  9992
2 27422  98.5726 243.6050 0011380 191.1795 168.9137 14.30906478226100
AQUA                    
1 27424U 02022A   25308.50301631  .00001262  00000+0  26346-3 0  9996
2 27424  98.3977 268.7762 0001167  49.4702  63.2719 14.61665910250445
CZ-4B R/B               
1 27432U 02024C   25308.36832603  .00000063  00000+0  55285-4 0  9992
2 27432  98.9060 357.2629 0050466  20.0531 351.2814 14.14515761211528
MIDORI II (ADEOS-II)    
1 27597U 02056A   25308.42015124  .00000343  00000+0  15301-3 0  9992
2 27597  98.7572 261.1883 0001695  46.0648 314.0673 14.29164553192408
H-2A R/B                
1 27601U 02056E   25308.44435971  .00000329  00000+0  13010-3 0  9995
2 27601  98.3005 268.7386 0070329 173.8427 297.6480 14.33633970196164
CZ-4B R/B               
1 28059U 03049C   25308.42581749  .00000511  00000+0  12930-3 0  9992
2 28059  98.6761 293.5479 0047105 253.7149 105.8863 14.54853501168383
CZ-2C R/B               
1 28222U 04012C   25308.42074698  .00034670  00000+0  56984-3 0  9995
2 28222  97.7501 357.9690 0020257  53.5594 306.7521 15.52080687184776
SL-16 R/B               
1 28353U 04021B   25308.50690926 -.00000077  00000+0 -15385-4 0  9994
2 28353  70.9972 135.1969 0006935 240.7098 119.3332 14.14569516105138
CZ-4B R/B               
1 28415U 04035C   25308.35564691  .00009109  00000+0  34569-3 0  9997
2 28415  97.3665 339.2265 0035490  54.6702 305.7846 15.26469537160775
CZ-2C R/B               
1 28480U 04046B   25308.39225634  .00000185  00000+0  83577-4 0  9995
2 28480  98.1951 226.1612 0139794 164.9057 195.6362 14.26914667 90638
