CCSDS_OMM_VERS = 2.0
CREATION_DATE  = 
ORIGINATOR     = 

OBJECT_NAME    = TITAN 4B R/B
OBJECT_ID      = 2000-047B
CENTER_NAME    = EARTH
REF_FRAME      = TEME
TIME_SYSTEM    = UTC
MEAN_ELEMENT_THEORY = SGP/SGP4

EPOCH          = 2025-11-04T11:41:24.276192
MEAN_MOTION    = 15.08354067
ECCENTRICITY   = .0042644
INCLINATION    = 67.9921
RA_OF_ASC_NODE = 32.2549
ARG_OF_PERICENTER = 188.7316
MEAN_ANOMALY   = 171.3096

EPHEMERIS_TYPE = 0
CLASSIFICATION_TYPE = U
NORAD_CAT_ID   = 26474
ELEMENT_SET_NO = 999
REV_AT_EPOCH   = 37402
BSTAR          = .31092E-3
MEAN_MOTION_DOT = .481E-4
MEAN_MOTION_DDOT = 0

CCSDS_OMM_VERS = 2.0
CREATION_DATE  = 
ORIGINATOR     = 

OBJECT_NAME    = ENVISAT
OBJECT_ID      = 2002-009A
CENTER_NAME    = EARTH
REF_FRAME      = TEME
TIME_SYSTEM    = UTC
MEAN_ELEMENT_THEORY = SGP/SGP4

EPOCH          = 2025-11-04T11:06:31.645728
MEAN_MOTION    = 14.38977043
ECCENTRICITY   = .0001352
INCLINATION    = 98.3535
RA_OF_ASC_NODE = 260.1864
ARG_OF_PERICENTER = 84.0589
MEAN_ANOMALY   = 25.7838

EPHEMERIS_TYPE = 0
CLASSIFICATION_TYPE = U
NORAD_CAT_ID   = 27386
ELEMENT_SET_NO = 999
REV_AT_EPOCH   = 24116
BSTAR          = .64942E-4
MEAN_MOTION_DOT = .158E-5
MEAN_MOTION_DDOT = 0

CCSDS_OMM_VERS = 2.0
CREATION_DATE  = 
ORIGINATOR     = 

OBJECT_NAME    = IDEFIX & ARIANE 42P R/B
OBJECT_ID      = 2002-021B
CENTER_NAME    = EARTH
REF_FRAME      = TEME
TIME_SYSTEM    = UTC
MEAN_ELEMENT_THEORY = SGP/SGP4

EPOCH          = 2025-11-04T09:42:17.529120
MEAN_MOTION    = 14.30906478
ECCENTRICITY   = .001138
INCLINATION    = 98.5726
RA_OF_ASC_NODE = 243.6050
ARG_OF_PERICENTER = 191.1795
MEAN_ANOMALY   = 168.9137

EPHEMERIS_TYPE = 0
CLASSIFICATION_TYPE = U
NORAD_CAT_ID   = 27422
ELEMENT_SET_NO = 999
REV_AT_EPOCH   = 22610
BSTAR          = .15009E-3
MEAN_MOTION_DOT = .351E-5
MEAN_MOTION_DDOT = 0

CCSDS_OMM_VERS = 2.0
CREATION_DATE  = 
ORIGINATOR     = 

OBJECT_NAME    = AQUA
OBJECT_ID      = 2002-022A
CENTER_NAME    = EARTH
REF_FRAME      = TEME
TIME_SYSTEM    = UTC
MEAN_ELEMENT_THEORY = SGP/SGP4

EPOCH          = 2025-11-04T12:04:20.609184
MEAN_MOTION    = 14.61665910
ECCENTRICITY   = .0001167
INCLINATION    = 98.3977
RA_OF_ASC_NODE = 268.7762
ARG_OF_PERICENTER = 49.4702
MEAN_ANOMALY   = 63.2719

EPHEMERIS_TYPE = 0
CLASSIFICATION_TYPE = U
NORAD_CAT_ID   = 27424
ELEMENT_SET_NO = 999
REV_AT_EPOCH   = 25044
BSTAR          = .26346E-3
MEAN_MOTION_DOT = .1262E-4
MEAN_MOTION_DDOT = 0

CCSDS_OMM_VERS = 2.0
CREATION_DATE  = 
ORIGINATOR     = 

OBJECT_NAME    = CZ-4B R/B
OBJECT_ID      = 2002-024C
CENTER_NAME    = EARTH
REF_FRAME      = TEME
TIME_SYSTEM    = UTC
MEAN_ELEMENT_THEORY = SGP/SGP4

EPOCH          = 2025-11-04T08:50:23.368992
MEAN_MOTION    = 14.14515761
ECCENTRICITY   = .0050466
INCLINATION    = 98.9060
RA_OF_ASC_NODE = 357.2629
ARG_OF_PERICENTER = 20.0531
MEAN_ANOMALY   = 351.2814

EPHEMERIS_TYPE = 0
CLASSIFICATION_TYPE = U
NORAD_CAT_ID   = 27432
ELEMENT_SET_NO = 999
REV_AT_EPOCH   = 21152
BSTAR          = .55285E-4
MEAN_MOTION_DOT = .63E-6
MEAN_MOTION_DDOT = 0

CCSDS_OMM_VERS = 2.0
CREATION_DATE  = 
ORIGINATOR     = 

OBJECT_NAME    = MIDORI II (ADEOS-II)
OBJECT_ID      = 2002-056A
CENTER_NAME    = EARTH
REF_FRAME      = TEME
TIME_SYSTEM    = UTC
MEAN_ELEMENT_THEORY = SGP/SGP4

EPOCH          = 2025-11-04T10:05:01.067136
MEAN_MOTION    = 14.29164553
ECCENTRICITY   = .0001695
INCLINATION    = 98.7572
RA_OF_ASC_NODE = 261.1883
ARG_OF_PERICENTER = 46.0648
MEAN_ANOMALY   = 314.0673

EPHEMERIS_TYPE = 0
CLASSIFICATION_TYPE = U
NORAD_CAT_ID   = 27597
ELEMENT_SET_NO = 999
REV_AT_EPOCH   = 19240
BSTAR          = .15301E-3
MEAN_MOTION_DOT = .343E-5
MEAN_MOTION_DDOT = 0

CCSDS_OMM_VERS = 2.0
CREATION_DATE  = 
ORIGINATOR     = 

OBJECT_NAME    = H-2A R/B
OBJECT_ID      = 2002-056E
CENTER_NAME    = EARTH
REF_FRAME      = TEME
TIME_SYSTEM    = UTC
MEAN_ELEMENT_THEORY = SGP/SGP4

EPOCH          = 2025-11-04T10:39:52.678944
MEAN_MOTION    = 14.33633970
ECCENTRICITY   = .0070329
INCLINATION    = 98.3005
RA_OF_ASC_NODE = 268.7386
ARG_OF_PERICENTER = 173.8427
MEAN_ANOMALY   = 297.6480

EPHEMERIS_TYPE = 0
CLASSIFICATION_TYPE = U
NORAD_CAT_ID   = 27601
ELEMENT_SET_NO = 999
REV_AT_EPOCH   = 19616
BSTAR          = .1301E-3
MEAN_MOTION_DOT = .329E-5
MEAN_MOTION_DDOT = 0

CCSDS_OMM_VERS = 2.0
CREATION_DATE  = 
ORIGINATOR     = 

OBJECT_NAME    = CZ-4B R/B
OBJECT_ID      = 2003-049C
CENTER_NAME    = EARTH
REF_FRAME      = TEME
TIME_SYSTEM    = UTC
MEAN_ELEMENT_THEORY = SGP/SGP4

EPOCH          = 2025-11-04T10:13:10.631136
MEAN_MOTION    = 14.54853501
ECCENTRICITY   = .0047105
INCLINATION    = 98.6761
RA_OF_ASC_NODE = 293.5479
ARG_OF_PERICENTER = 253.7149
MEAN_ANOMALY   = 105.8863

EPHEMERIS_TYPE = 0
CLASSIFICATION_TYPE = U
NORAD_CAT_ID   = 28059
ELEMENT_SET_NO = 999
REV_AT_EPOCH   = 16838
BSTAR          = .1293E-3
MEAN_MOTION_DOT = .511E-5
MEAN_MOTION_DDOT = 0

CCSDS_OMM_VERS = 2.0
CREATION_DATE  = 
ORIGINATOR     = 

OBJECT_NAME    = CZ-2C R/B
OBJECT_ID      = 2004-012C
CENTER_NAME    = EARTH
REF_FRAME      = TEME
TIME_SYSTEM    = UTC
MEAN_ELEMENT_THEORY = SGP/SGP4

EPOCH          = 2025-11-04T10:05:52.539072
MEAN_MOTION    = 15.52080687
ECCENTRICITY   = .0020257
INCLINATION    = 97.7501
RA_OF_ASC_NODE = 357.9690
ARG_OF_PERICENTER = 53.5594
MEAN_ANOMALY   = 306.7521

EPHEMERIS_TYPE = 0
CLASSIFICATION_TYPE = U
NORAD_CAT_ID   = 28222
ELEMENT_SET_NO = 999
REV_AT_EPOCH   = 18477
BSTAR          = .56984E-3
MEAN_MOTION_DOT = .3467E-3
MEAN_MOTION_DDOT = 0

CCSDS_OMM_VERS = 2.0
CREATION_DATE  = 
ORIGINATOR     = 

OBJECT_NAME    = SL-16 R/B
OBJECT_ID      = 2004-021B
CENTER_NAME    = EARTH
REF_FRAME      = TEME
TIME_SYSTEM    = UTC
MEAN_ELEMENT_THEORY = SGP/SGP4

EPOCH          = 2025-11-04T12:09:56.960064
MEAN_MOTION    = 14.14569516
ECCENTRICITY   = .0006935
INCLINATION    = 70.9972
RA_OF_ASC_NODE = 135.1969
ARG_OF_PERICENTER = 240.7098
MEAN_ANOMALY   = 119.3332

EPHEMERIS_TYPE = 0
CLASSIFICATION_TYPE = U
NORAD_CAT_ID   = 28353
ELEMENT_SET_NO = 999
REV_AT_EPOCH   = 10513
BSTAR          = -.15385E-4
MEAN_MOTION_DOT = -.77E-6
MEAN_MOTION_DDOT = 0

CCSDS_OMM_VERS = 2.0
CREATION_DATE  = 
ORIGINATOR     = 

OBJECT_NAME    = CZ-4B R/B
OBJECT_ID      = 2004-035C
CENTER_NAME    = EARTH
REF_FRAME      = TEME
TIME_SYSTEM    = UTC
MEAN_ELEMENT_THEORY = SGP/SGP4

EPOCH          = 2025-11-04T08:32:07.893024
MEAN_MOTION    = 15.26469537
ECCENTRICITY   = .003549
INCLINATION    = 97.3665
RA_OF_ASC_NODE = 339.2265
ARG_OF_PERICENTER = 54.6702
MEAN_ANOMALY   = 305.7846

EPHEMERIS_TYPE = 0
CLASSIFICATION_TYPE = U
NORAD_CAT_ID   = 28415
ELEMENT_SET_NO = 999
REV_AT_EPOCH   = 16077
BSTAR          = .34569E-3
MEAN_MOTION_DOT = .9109E-4
MEAN_MOTION_DDOT = 0

CCSDS_OMM_VERS = 2.0
CREATION_DATE  = 
ORIGINATOR     = 

OBJECT_NAME    = CZ-2C R/B
OBJECT_ID      = 2004-046B
CENTER_NAME    = EARTH
REF_FRAME      = TEME
TIME_SYSTEM    = UTC
MEAN_ELEMENT_THEORY = SGP/SGP4

EPOCH          = 2025-11-04T09:24:50.947776
MEAN_MOTION    = 14.26914667
ECCENTRICITY   = .0139794
INCLINATION    = 98.1951
RA_OF_ASC_NODE = 226.1612
ARG_OF_PERICENTER = 164.9057
MEAN_ANOMALY   = 195.6362

EPHEMERIS_TYPE = 0
CLASSIFICATION_TYPE = U
NORAD_CAT_ID   = 28480
ELEMENT_SET_NO = 999
REV_AT_EPOCH   = 9063
BSTAR          = .83577E-4
MEAN_MOTION_DOT = .185E-5
MEAN_MOTION_DDOT = 0

